STARLINK-32937          
1 63148U 25043S   25213.34116564  .00028011  00000+0  10232-2 0  9990
2 63148  42.9974 180.5789 0001889 254.7112 105.3531 15.27591110 23662
STARLINK-32939          
1 63149U 25043T   25213.33335648  .00065081  00000+0  23565-2 0  9997
2 63149  42.9989 180.4893 0001215 274.0189  99.6302 15.27541582 24295
STARLINK-32919          
1 63150U 25043U   25213.14886328  .00023905  00000+0  87524-3 0  9999
2 63150  42.9989 181.7134 0001256 256.6249 103.4463 15.27585140 23634
STARLINK-32876          
1 63151U 25043V   25213.31159707  .00011826  00000+0  43821-3 0  9994
2 63151  43.0006 180.3503 0001521 267.8689  92.1988 15.27607948 23669
STARLINK-32915          
1 63152U 25043W   25213.92995870  .00021905  00000+0  80283-3 0  9993
2 63152  42.9981 184.1346 0001767 284.4803  75.5853 15.27592982 23670
SEDNA-2                 
1 63153U 25009DQ  25213.65068790  .00008210  00000+0  57158-3 0  9997
2 63153  97.4887 290.5700 0011742  82.3013 277.9547 15.05652134 29934
TJS-15                  
1 63157U 25045A   25213.72937493 -.00000223  00000+0  00000+0 0  9991
2 63157   0.0582 262.1096 0003821 288.5663 112.7851  1.00273267  1562
QIANFAN-73              
1 63159U 25046A   25213.88111138  .00000148  00000+0  21098-3 0  9990
2 63159  88.9858 333.7126 0016435 143.3909 216.8368 13.50958524 29473
QIANFAN-74              
1 63160U 25046B   25213.86470322  .00000159  00000+0  22732-3 0  9991
2 63160  88.9858 333.6029 0001958 102.3368 257.8002 13.50963098 29533
QIANFAN-75              
1 63161U 25046C   25213.77830579  .00000162  00000+0  23179-3 0  9996
2 63161  88.9859 333.8434 0017538 146.8146 213.4109 13.50959524 29394
QIANFAN-76              
1 63162U 25046D   25213.84808371  .00000180  00000+0  26065-3 0  9997
2 63162  88.9859 333.8175 0015107 146.4577 213.7534 13.50955606 29416
QIANFAN-77              
1 63163U 25046E   25213.87216459  .00000348  00000+0  24383-3 0  9998
2 63163  88.9856 332.9111 0016629 131.3386 228.9225 13.96005479 29919
QIANFAN-78              
1 63164U 25046F   25213.88936840  .00000167  00000+0  24027-3 0  9997
2 63164  88.9858 333.6787 0016417 148.9546 211.2579 13.50958917 29490
QIANFAN-79              
1 63165U 25046G   25213.84402346  .00000177  00000+0  25542-3 0  9997
2 63165  88.9862 333.7856 0016137 147.4429 212.7720 13.50961047 29433
QIANFAN-80              
1 63166U 25046H   25213.86059609  .00000146  00000+0  20696-3 0  9991
2 63166  88.9859 333.4946 0015031 150.9834 209.2156 13.50961248 29592
QIANFAN-81              
1 63167U 25046J   25213.83998496  .00000154  00000+0  21925-3 0  9990
2 63167  88.9859 333.5651 0016280 140.7934 219.4400 13.50960098 29544
QIANFAN-82              
1 63168U 25046K   25213.87275700  .00000084  00000+0  11106-3 0  9993
2 63168  88.9858 333.6052 0014280 147.3010 212.9028 13.50956928 29536
QIANFAN-83              
1 63169U 25046L   25213.86886532  .00000200  00000+0  24402-3 0  9997
2 63169  88.9858 333.6420 0015699 140.8028 219.4269 13.61930887 29513
QIANFAN-84              
1 63170U 25046M   25213.90162839  .00000163  00000+0  23429-3 0  9997
2 63170  88.9858 333.7354 0017297 144.8197 215.4099 13.50963806 29465
QIANFAN-85              
1 63171U 25046N   25213.89756731  .00000147  00000+0  20914-3 0  9994
2 63171  88.9858 333.6080 0014628 146.3643 213.8440 13.50958008 29537
QIANFAN-86              
1 63172U 25046P   25213.90579594  .00000156  00000+0  22273-3 0  9997
2 63172  88.9860 333.4662 0012430 149.2773 210.9108 13.50958310 29614
QIANFAN-87              
1 63173U 25046Q   25213.87688131  .00000164  00000+0  23455-3 0  9994
2 63173  88.9856 333.5858 0013244 145.1597 215.0423 13.50956143 29541
QIANFAN-88              
1 63174U 25046R   25213.89353798  .00000154  00000+0  22004-3 0  9993
2 63174  88.9859 333.5355 0013437 152.4909 207.6956 13.50958505 29574
QIANFAN-89              
1 63175U 25046S   25213.78232776  .00000164  00000+0  23487-3 0  9991
2 63175  88.9859 333.7359 0017953 145.7704 214.4608 13.50963255 29451
QIANFAN-90              
1 63176U 25046T   25213.88518220  .00000174  00000+0  25076-3 0  9991
2 63176  88.9859 333.6975 0014946 142.9979 217.2206 13.50961822 29483
PUNCH-NFI (SMEX 15A)    
1 63178U 25047A   25213.45274156  .00000602  00000+0  98751-4 0  9991
2 63178  97.9556  39.6780 0012608 103.9164 256.3448 14.74167156 20963
PUNCH-WFI 1 (SMEX 15B)  
1 63179U 25047B   25213.74416130  .00000651  00000+0  10752-3 0  9992
2 63179  97.9576  39.9542 0010931 118.7735 241.4572 14.73589935 21001
PUNCH-WFI 3 (SMEX 15D)  
1 63180U 25047C   25213.49603307  .00000660  00000+0  10853-3 0  9992
2 63180  97.9533  39.5834 0011512 112.2121 248.0310 14.73718148 20967
PUNCH-WFI 2 (SMEX 15C)  
1 63181U 25047D   25213.51879055  .00000670  00000+0  11011-3 0  9999
2 63181  97.9555  39.5905 0010659 123.7863 236.4362 14.73715474 20969
SPHEREX (MIDEX 9)       
1 63182U 25047E   25213.50228919  .00001211  00000+0  19600-3 0  9990
2 63182  97.9568  39.4765 0011556 133.2036 227.0139 14.73029741 20965
STARLINK-11602 [DTC]    
1 63183U 25048A   25213.34841989  .00144499  00000+0  11087-2 0  9998
2 63183  42.9992 208.3623 0001284 264.8050  95.2671 15.70870932 23481
STARLINK-11617 [DTC]    
1 63184U 25048B   25213.91668981  .00005612  00000+0  47223-4 0  9997
2 63184  42.9999 204.8628 0001532 261.2951 106.3153 15.70829633  5999
STARLINK-11618 [DTC]    
1 63185U 25048C   25213.69275691  .00200667  00000+0  15233-2 0  9996
2 63185  43.0002 205.7633 0001673 287.5126  72.5559 15.70942740 23915
STARLINK-11646 [DTC]    
1 63186U 25048D   25213.68214639  .00307924  00000+0  23077-2 0  9990
2 63186  42.9998 205.6771 0001332  47.0115 313.0864 15.70919462 23927
STARLINK-11622 [DTC]    
1 63187U 25048E   25213.86239521  .00220944  00000+0  16771-2 0  9997
2 63187  42.9994 205.3383 0000885 281.7006  78.3762 15.70880894 23944
STARLINK-11642 [DTC]    
1 63188U 25048F   25213.14174282  .00220552  00000+0  16761-2 0  9995
2 63188  43.0016 209.3826 0003821 293.9256  66.1211 15.70849661 23832
STARLINK-11639 [DTC]    
1 63189U 25048G   25213.91668981 -.00092007  00000+0 -72054-3 0  9997
2 63189  42.9998 204.5606 0001548 264.9486 222.8994 15.70870470  6045
STARLINK-11637 [DTC]    
1 63190U 25048H   25213.67255837  .00211501  00000+0  16055-2 0  9992
2 63190  42.9994 206.4939 0001602 288.9625  71.1069 15.70909357 23915
STARLINK-11647 [DTC]    
1 63191U 25048J   25213.38014630  .00190265  00000+0  14494-2 0  9993
2 63191  43.0015 207.7185 0001687 287.8711  72.1973 15.70892190 23872
STARLINK-11643 [DTC]    
1 63192U 25048K   25213.39076672  .00236558  00000+0  17902-2 0  9992
2 63192  43.0002 207.8051 0001774 288.4632  71.6043 15.70904645 23879
STARLINK-11635 [DTC]    
1 63193U 25048L   25213.68744835  .00287326  00000+0  21590-2 0  9995
2 63193  42.9998 205.7170 0000784 308.4780  51.6017 15.70918522 23922
STARLINK-11636 [DTC]    
1 63194U 25048M   25213.33780055  .00290098  00000+0  21797-2 0  9991
2 63194  42.9997 208.2734 0002173 292.2011  67.8625 15.70911940 23861
STARLINK-11631 [DTC]    
1 63195U 25048N   25213.86770517  .00201233  00000+0  15331-2 0  9992
2 63195  42.9993 205.3771 0001245 271.6376  88.4349 15.70855222 23942
STARLINK-32946          
1 63196U 25048P   25213.51553653  .00037455  00000+0  13633-2 0  9991
2 63196  43.0015 252.7500 0001987 279.9911  80.0716 15.27589032 23373
STARLINK-32960          
1 63197U 25048Q   25213.16335841  .00022062  00000+0  80849-3 0  9992
2 63197  43.0007 250.8967 0002082 284.4806  75.5814 15.27593894 23360
STARLINK-32904          
1 63198U 25048R   25213.45173968  .00028422  00000+0  10378-2 0  9990
2 63198  42.9994 248.7558 0002290 287.4462  72.6139 15.27597743 23419
STARLINK-32931          
1 63199U 25048S   25213.47614125  .00033620  00000+0  12239-2 0  9992
2 63199  43.0009 248.9419 0001414 270.4395  89.6294 15.27627931 23582
STARLINK-32934          
1 63200U 25048T   25213.58894160  .00032922  00000+0  12017-2 0  9994
2 63200  42.9944 248.0653 0000271 246.6129 113.4694 15.27548849 23436
STARLINK-32938          
1 63201U 25048U   25213.15307825  .00032145  00000+0  11717-2 0  9998
2 63201  43.0031 250.8147 0001307 267.9998  92.0704 15.27603856 23362
STARLINK-32935          
1 63202U 25048V   25213.50187261  .00020383  00000+0  74876-3 0  9995
2 63202  43.0019 249.1466 0002134 275.0373  85.0235 15.27553954 23410
STARLINK-32930          
1 63203U 25048W   25213.10567824  .00004244  00000+0  16364-3 0  9995
2 63203  43.0015 251.3252 0002266 303.8174  56.2462 15.27581667 23357
CREW DRAGON 10          
1 63204U 25049A   25213.90315436  .00010880  00000+0  19642-3 0  9990
2 63204  51.6346  80.4852 0001746 142.2728 217.8383 15.50278326 21658
QPS-SAR-9 (SUSANOO-I)   
1 63205U 25050A   25213.92299533  .00005074  00000+0  43105-3 0  9994
2 63205  42.0212  60.6566 0001559 146.5335 213.5589 14.98584444 20988
2025-051A               
1 63208U 25051A   25213.92027902  .00009814  00000+0  42182-3 0  9997
2 63208  97.4841 289.8320 0001829 141.4796 218.6571 15.22865080 21233
2025-051B               
1 63209U 25051B   25213.87343343  .00015363  00000+0  54551-3 0  9991
2 63209  97.4821 290.6277 0009677 149.6871 210.4931 15.29086460 21285
JINJUSAT-1B             
1 63210U 25052A   25213.22211284  .00011889  00000+0  52893-3 0  9997
2 63210  97.4345 106.6950 0005868 124.2180 235.9612 15.21623023 21251
NUSHSAT1                
1 63211U 25052B   25213.27314458  .00013453  00000+0  59208-3 0  9996
2 63211  97.4332 106.7614 0005806 128.1826 231.9934 15.21961972 21260
IOD-1                   
1 63212U 25052C   25213.26522557  .00036314  00000+0  13851-2 0  9991
2 63212  97.4191 106.9794 0004254 144.9986 215.1533 15.26577394 21292
TEVEL2-4                
1 63213U 25052D   25213.23196613  .00012810  00000+0  56975-3 0  9999
2 63213  97.4252 106.5148 0004645 137.1667 222.9932 15.21619156 21257
